NORAD_CAT_ID,OBJECT_NAME,OBJECT_TYPE,EPOCH,MEAN_MOTION,ECCENTRICITY,INCLINATION,RA_OF_ASC_NODE,ARG_OF_PERICENTER,MEAN_ANOMALY,BSTAR,MEAN_MOTION_DOT,MEAN_MOTION_DDOT,TLE_LINE0,TLE_LINE1,TLE_LINE2,SEMIMAJOR_AXIS,PERIOD,APOGEE,PERIGEE,DECAYED
49409.0,STARLINK-3075,PAYLOAD,2023-06-03 19:55:56,15.08836104,0.0001244,53.2182,82.55,80.1139,279.9994,4.1535e-05,3.73e-06,0.0,0 STARLINK-3075,1 49409U 21104B   23154.83051692  .00000373  00000-0  41535-4 0  9998,2 49409  53.2182  82.5500 0001244  80.1139 279.9994 15.08836104 86180,6917.892,95.438,540.618,538.897,0.0
49409.0,STARLINK-3075,PAYLOAD,2023-06-04 05:28:15,15.08840915,0.0001162,53.2176,80.7669,86.1363,273.9762,8.1706e-05,1.013e-05,0.0,0 STARLINK-3075,1 49409U 21104B   23155.22795340  .00001013  00000-0  81706-4 0  9993,2 49409  53.2176  80.7669 0001162  86.1363 273.9762 15.08840915 86242,6917.878,95.437,540.546,538.939,0.0
49409.0,STARLINK-3075,PAYLOAD,2023-06-04 19:46:43,15.08836805,0.0001133,53.2176,78.0905,88.7391,271.3731,3.102e-05,2.06e-06,0.0,0 STARLINK-3075,1 49409U 21104B   23155.82411922  .00000206  00000-0  31020-4 0  9997,2 49409  53.2176  78.0905 0001133  88.7391 271.3731 15.08836805 87413,6917.89,95.438,540.539,538.971,0.0
49409.0,STARLINK-3075,PAYLOAD,2023-06-05 03:43:39,15.08842784,0.0001108,53.2176,76.6035,85.6775,274.4344,7.6346e-05,9.28e-06,0.0,0 STARLINK-3075,1 49409U 21104B   23156.15531420  .00000928  00000-0  76346-4 0  9991,2 49409  53.2176  76.6035 0001108  85.6775 274.4344 15.08842784 87467,6917.872,95.437,540.503,538.97,0.0
49409.0,STARLINK-3075,PAYLOAD,2023-06-05 11:40:35,15.08839955,0.0001086,53.2177,75.117,86.7184,273.3932,2.6831e-05,1.39e-06,0.0,0 STARLINK-3075,1 49409U 21104B   23156.48651768  .00000139  00000-0  26831-4 0  9993,2 49409  53.2177  75.1170 0001086  86.7184 273.3932 15.08839955 86436,6917.881,95.438,540.497,538.994,0.0
49409.0,STARLINK-3075,PAYLOAD,2023-06-05 19:37:31,15.08836883,0.0001102,53.2176,73.63,84.6235,275.4883,7.7737e-06,-1.64e-06,0.0,0 STARLINK-3075,1 49409U 21104B   23156.81772129 -.00000164  00000-0  77737-5 0  9996,2 49409  53.2176  73.6300 0001102  84.6235 275.4883 15.08836883 86486,6917.89,95.438,540.517,538.993,0.0
49409.0,STARLINK-3075,PAYLOAD,2023-06-06 03:34:26,15.08843188,0.0001145,53.2181,72.1433,85.8165,274.2958,5.3872e-05,5.7e-06,0.0,0 STARLINK-3075,1 49409U 21104B   23157.14891615  .00000570  00000-0  53872-4 0  9998,2 49409  53.2181  72.1433 0001145  85.8165 274.2958 15.08843188 87617,6917.871,95.437,540.528,538.944,0.0
49409.0,STARLINK-3075,PAYLOAD,2023-06-06 17:52:54,15.08836754,0.0001104,53.2182,69.4666,91.2691,268.8427,3.5124e-05,2.71e-06,0.0,0 STARLINK-3075,1 49409U 21104B   23157.74508093  .00000271  00000-0  35124-4 0  9997,2 49409  53.2182  69.4666 0001104  91.2691 268.8427 15.08836754 87706,6917.89,95.438,540.519,538.992,0.0
49409.0,STARLINK-3075,PAYLOAD,2023-06-07 03:25:13,15.08845687,0.000118,53.218,67.6824,87.4933,272.6194,5.9118e-05,6.53e-06,0.0,0 STARLINK-3075,1 49409U 21104B   23158.14251472  .00000653  00000-0  59118-4 0  9991,2 49409  53.2180  67.6824 0001180  87.4933 272.6194 15.08845687 87765,6917.863,95.437,540.544,538.912,0.0
49409.0,STARLINK-3075,PAYLOAD,2023-06-07 17:43:42,15.08834302,0.0001287,53.2182,65.0064,87.1366,272.9773,2.9784e-05,1.86e-06,0.0,0 STARLINK-3075,1 49409U 21104B   23158.73868445  .00000186  00000-0  29784-4 0  9997,2 49409  53.2182  65.0064 0001287  87.1366 272.9773 15.08834302 87858,6917.898,95.438,540.653,538.872,0.0
49409.0,STARLINK-3075,PAYLOAD,2023-06-08 03:16:00,15.08842316,0.0001225,53.2185,63.2223,89.003,271.1102,4.8592e-05,4.86e-06,0.0,0 STARLINK-3075,1 49409U 21104B   23159.13611955  .00000486  00000-0  48592-4 0  9995,2 49409  53.2185  63.2223 0001225  89.0030 271.1102 15.08842316 87917,6917.873,95.437,540.586,538.891,0.0
49409.0,STARLINK-3075,PAYLOAD,2023-06-09 03:06:47,15.08850995,0.0001106,53.2182,58.7615,89.1242,270.9877,0.00010159,1.33e-05,0.0,0 STARLINK-3075,1 49409U 21104B   23160.12971208  .00001330  00000-0  10159-3 0  9992,2 49409  53.2182  58.7615 0001106  89.1242 270.9877 15.08850995 88067,6917.847,95.437,540.477,538.947,0.0
49409.0,STARLINK-3075,PAYLOAD,2023-06-09 17:25:16,15.08837656,0.0001223,53.2181,56.086,89.0853,271.0279,4.4837e-05,4.26e-06,0.0,0 STARLINK-3075,1 49409U 21104B   23160.72588321  .00000426  00000-0  44837-4 0  9994,2 49409  53.2181  56.0860 0001223  89.0853 271.0279 15.08837656 88153,6917.888,95.438,540.599,538.906,0.0
49409.0,STARLINK-3075,PAYLOAD,2023-06-10 02:57:34,15.08844636,0.0001057,53.2185,54.3016,91.6736,268.4377,9.7452e-05,1.264e-05,0.0,0 STARLINK-3075,1 49409U 21104B   23161.12331746  .00001264  00000-0  97452-4 0  9998,2 49409  53.2185  54.3016 0001057  91.6736 268.4377 15.08844636 88217,6917.866,95.437,540.462,539.0,0.0
49409.0,STARLINK-3075,PAYLOAD,2023-06-10 09:19:07,15.0884021,0.0001066,53.2187,53.1115,92.5814,267.53,5.0327e-05,5.13e-06,0.0,0 STARLINK-3075,1 49409U 21104B   23161.38828160  .00000513  00000-0  50327-4 0  9993,2 49409  53.2187  53.1115 0001066  92.5814 267.5300 15.08840210 87177,6917.88,95.438,540.482,539.007,0.0
49409.0,STARLINK-3075,PAYLOAD,2023-06-10 17:16:03,15.08836137,0.0001058,53.2185,51.6256,93.476,266.6353,-7.4219e-05,-1.469e-05,0.0,0 STARLINK-3075,1 49409U 21104B   23161.71948821 -.00001469  00000-0 -74219-4 0  9996,2 49409  53.2185  51.6256 0001058  93.4760 266.6353 15.08836137 88302,6917.892,95.438,540.489,539.025,0.0
49409.0,STARLINK-3075,PAYLOAD,2023-06-11 02:48:22,15.08842024,0.0001184,53.2182,49.8423,86.441,273.6717,-1.5668e-05,-5.37e-06,0.0,0 STARLINK-3075,1 49409U 21104B   23162.11692331 -.00000537  00000-0 -15668-4 0  9991,2 49409  53.2182  49.8423 0001184  86.4410 273.6717 15.08842024 88368,6917.874,95.437,540.558,538.92,0.0
49409.0,STARLINK-3075,PAYLOAD,2023-06-11 09:09:54,15.0884163,0.0001068,53.2185,48.6532,86.4212,273.6902,-4.8151e-05,-1.054e-05,0.0,0 STARLINK-3075,1 49409U 21104B   23162.38188432 -.00001054  00000-0 -48151-4 0  9990,2 49409  53.2185  48.6532 0001068  86.4212 273.6902 15.08841630 87323,6917.875,95.437,540.479,539.002,0.0
49409.0,STARLINK-3075,PAYLOAD,2023-06-11 17:06:50,15.08836463,9.34e-05,53.2182,47.1658,95.5016,264.6083,5.6793e-05,6.16e-06,0.0,0 STARLINK-3075,1 49409U 21104B   23162.71308671  .00000616  00000-0  56793-4 0  9998,2 49409  53.2182  47.1658 0000934  95.5016 264.6083 15.08836463 87370,6917.891,95.438,540.402,539.11,0.0
49409.0,STARLINK-3075,PAYLOAD,2023-06-12 01:03:45,15.08852825,0.000122,53.218,45.6793,101.8779,258.235,2.309e-05,8e-07,0.0,0 STARLINK-3075,1 49409U 21104B   23163.04427677  .00000080  00000-0  23090-4 0  9992,2 49409  53.2180  45.6793 0001220 101.8779 258.2350 15.08852825 88509,6917.841,95.437,540.55,538.862,0.0
49409.0,STARLINK-3075,PAYLOAD,2023-06-12 09:00:41,15.08843123,9.1e-05,53.2189,44.1935,94.2224,265.8872,1.3387e-05,-7.5e-07,0.0,0 STARLINK-3075,1 49409U 21104B   23163.37548344 -.00000075  00000-0  13387-4 0  9996,2 49409  53.2189  44.1935 0000910  94.2224 265.8872 15.08843123 88554,6917.871,95.437,540.365,539.106,0.0
49409.0,STARLINK-3075,PAYLOAD,2023-06-12 18:33:01,15.08832053,9.42e-05,53.2189,42.4084,96.9791,263.1308,7.6275e-05,9.26e-06,0.0,0 STARLINK-3075,1 49409U 21104B   23163.77293078  .00000926  00000-0  76275-4 0  9990,2 49409  53.2189  42.4084 0000942  96.9791 263.1308 15.08832053 88615,6917.905,95.438,540.421,539.118,0.0
49409.0,STARLINK-3075,PAYLOAD,2023-06-13 00:54:33,15.08838407,8.9e-05,53.2188,41.2192,90.4931,269.6163,9.3341e-05,1.198e-05,0.0,0 STARLINK-3075,1 49409U 21104B   23164.03788739  .00001198  00000-0  93341-4 0  9998,2 49409  53.2188  41.2192 0000890  90.4931 269.6163 15.08838407 88651,6917.885,95.438,540.366,539.135,0.0
49409.0,STARLINK-3075,PAYLOAD,2023-06-13 16:48:24,15.08839344,9.93e-05,53.2188,38.2459,93.3989,266.7117,5.8323e-05,6.41e-06,0.0,0 STARLINK-3075,1 49409U 21104B   23164.70028817  .00000641  00000-0  58323-4 0  9999,2 49409  53.2188  38.2459 0000993  93.3989 266.7117 15.08839344 87671,6917.882,95.438,540.434,539.06,0.0
49409.0,STARLINK-3075,PAYLOAD,2023-06-14 00:45:20,15.08850688,0.0001091,53.2187,36.7588,96.3968,263.7148,3.0681e-06,-2.39e-06,0.0,0 STARLINK-3075,1 49409U 21104B   23165.03148164 -.00000239  00000-0  30681-5 0  9996,2 49409  53.2187  36.7588 0001091  96.3968 263.7148 15.08850688 88807,6917.848,95.437,540.467,538.958,0.0
49409.0,STARLINK-3075,PAYLOAD,2023-06-14 15:03:48,15.08835044,0.0001024,53.219,34.082,86.5429,273.568,8.1709e-05,1.013e-05,0.0,0 STARLINK-3075,1 49409U 21104B   23165.62765032  .00001013  00000-0  81709-4 0  9996,2 49409  53.2190  34.0820 0001024  86.5429 273.5680 15.08835044 88898,6917.896,95.438,540.469,539.052,0.0
49409.0,STARLINK-3075,PAYLOAD,2023-06-14 18:14:35,15.08836942,0.0001086,53.2189,33.4875,83.5292,276.5824,8.309e-05,1.035e-05,0.0,0 STARLINK-3075,1 49409U 21104B   23165.76012967  .00001035  00000-0  83090-4 0  9992,2 49409  53.2189  33.4875 0001086  83.5292 276.5824 15.08836942 87836,6917.89,95.438,540.506,539.003,0.0
49409.0,STARLINK-3075,PAYLOAD,2023-06-15 00:36:07,15.08845777,0.0001086,53.2189,32.2979,82.234,277.8776,7.705e-05,9.39e-06,0.0,0 STARLINK-3075,1 49409U 21104B   23166.02508409  .00000939  00000-0  77050-4 0  9994,2 49409  53.2189  32.2979 0001086  82.2340 277.8776 15.08845777 88958,6917.863,95.437,540.479,538.976,0.0
49409.0,STARLINK-3075,PAYLOAD,2023-06-15 14:54:35,15.08840961,0.0001129,53.2179,29.6209,81.6156,278.4964,4.2461e-05,3.88e-06,0.0,0 STARLINK-3075,1 49409U 21104B   23166.62124871  .00000388  00000-0  42461-4 0  9993,2 49409  53.2179  29.6209 0001129  81.6156 278.4964 15.08840961 89046,6917.877,95.437,540.523,538.961,0.0
49409.0,STARLINK-3075,PAYLOAD,2023-06-16 00:26:54,15.08845519,9.95e-05,53.2181,27.8367,85.924,274.1866,8.0016e-05,9.86e-06,0.0,0 STARLINK-3075,1 49409U 21104B   23167.01868381  .00000986  00000-0  80016-4 0  9990,2 49409  53.2181  27.8367 0000995  85.9240 274.1866 15.08845519 88020,6917.864,95.437,540.417,539.04,0.0
